       " ('PLEIADES 1B',\n",
       "  '1 39019U 12068A   17004.48824091  .00000017  00000-0  13428-4 0  9997',\n",
       "  '2 39019  98.1837  82.0442 0001312  79.7783 280.3569 14.58568329217855'),\n",
       " ('GOKTURK 2',\n",
       "  '1 39030U 12073A   17004.57292930  .00000042  00000-0  14430-4 0  9999',\n",
       "  '2 39030  98.0123 259.8369 0000571 150.1621 209.9617 14.72613431216477'),\n",
       " ('LANDSAT 8',\n",
       "  '1 39084U 13008A   17004.31298545  .00000073  00000-0  26315-4 0  9996',\n",
       "  '2 39084  98.2024  77.2386 0001242  92.3013 267.8328 14.57114995207192'),\n",
       " ('SARAL',\n",
       "  '1 39086U 13009A   17004.53068374 -.00000008  00000-0  13256-4 0  9997',\n",
       "  '2 39086  98.5373 194.6910 0001648  50.6881 309.4449 14.31990472201680'),\n",
       " ('GAOFEN 1',\n",
       "  '1 39150U 13018A   17004.52150319  .00000058  00000-0  15771-4 0  9997',\n",
       "  '2 39150  97.9644  90.6464 0017773 219.9144 140.0759 14.76513680199098'),\n",
       " ('VNREDSAT 1',\n",
       "  '1 39160U 13021B   17004.52210652  .00000100  00000-0  28549-4 0  9994',\n",
       "  '2 39160  98.0996  83.5180 0001297  84.8334 275.3019 14.62957894195676'),\n",
       " ('ARIRANG-5 (KOMPSAT-5)',\n",
       "  '1 39227U 13042A   17004.52613435  .00000410  00000-0  33567-4 0  9997',\n",
       "  '2 39227  97.6033 192.0514 0001290  63.3933  20.8511 15.04523799185088'),\n",
       " ('YAOGAN 18',\n",
       "  '1 39363U 13059A   17004.53783014  .00000880  00000-0  46571-4 0  9998',\n",
       "  '2 39363  97.4128  76.6144 0001940  85.5231  26.0923 15.17981188176491'),\n",
       " ('SKYSAT-1',\n",
       "  '1 39418U 13066C   17004.27091555 -.00000206  00000-0 -12220-4 0  9998',\n",
       "  '2 39418  97.7142  89.4050 0022397 111.6274 248.7324 14.98365160170537'),\n",
       " ('DUBAISAT-2',\n",
       "  '1 39419U 13066D   17004.45717128  .00000268  00000-0  30711-4 0  9991',\n",
       "  '2 39419  97.6976  80.7973 0015481  92.5230 267.7755 14.93523251170064'),\n",
       " ('GPM-CORE',\n",
       "  '1 39574U 14009C   17004.51273096  .00006806  00000-0  10218-3 0  9992',\n",
       "  '2 39574  65.0099 116.4209 0010690 283.6336  76.3619 15.55722608162067'),\n",
       " ('SENTINEL-1A',\n",
       "  '1 39634U 14016A   17004.30439738  .00000032  00000-0  16564-4 0  9997',\n",
       "  '2 39634  98.1809  14.2827 0001271  73.6760 286.4578 14.59200345146796'),\n",
       " ('KAZEOSAT 1',\n",
       "  '1 39731U 14024A   17004.45533867  .00000016  00000-0  18185-4 0  9991',\n",
       "  '2 39731  98.4351  85.6702 0001264  89.4435 270.6902 14.42009330141298'),\n",
       " ('ALOS-2',\n",
       "  '1 39766U 14029A   17004.44351329 -.00000074  00000-0 -30672-5 0  9996',\n",
       "  '2 39766  97.9210 104.1322 0001447  91.5252 268.6157 14.79469588141398'),\n",
       " ('KAZEOSAT 2',\n",
       "  '1 40010U 14033A   17004.47335980  .00000054  00000-0  13455-4 0  9998',\n",
       "  '2 40010  97.9083 268.2484 0018319  88.3483 271.9803 14.82063876137694'),\n",
       " ('HODOYOSHI-4',\n",
       "  '1 40011U 14033B   17004.56747614  .00000171  00000-0  28847-4 0  9991',\n",
       "  '2 40011  97.9011 265.3640 0028340  82.1813 278.2613 14.80806231137543'),\n",
       " ('DEIMOS-2',\n",
       "  '1 40013U 14033D   17004.55694049  .00000177  00000-0  27119-4 0  9992',\n",
       "  '2 40013  97.8956 270.2147 0002254 104.0734 256.0730 14.84808836137924'),\n",
       " ('HODOYOSHI-3',\n",
       "  '1 40015U 14033F   17004.29979255  .00000176  00000-0  31160-4 0  9990',\n",
       "  '2 40015  97.8931 260.9118 0038516  87.1719 273.3899 14.78175558137274'),\n",
       " ('SPOT 7',\n",
       "  '1 40053U 14034A   17004.50430785 -.00000045  00000-0  00000+0 0  9997',\n",
       "  '2 40053  98.1759  74.4739 0001479  89.6055 270.5314 14.58569447134015'),\n",
       " ('SKYSAT-2',\n",
       "  '1 40072U 14037D   17004.35547554  .00000083  00000-0  18144-4 0  9991',\n",
       "  '2 40072  98.3291 109.1136 0005631 213.3949 146.6908 14.80932923134737'),\n",
       " ('WORLDVIEW-3 (WV-3)',\n",
       "  '1 40115U 14048A   17004.29612748  .00000140  00000-0  22806-4 0  9996',\n",
       "  '2 40115  97.8849  86.4134 0001601  87.4485 272.6912 14.84760940129787'),\n",
       " ('YAOGAN 21',\n",
       "  '1 40143U 14053A   17004.44705038  .00001430  00000-0  60772-4 0  9992',\n",
       "  '2 40143  97.3302  81.2155 0012718  52.9630   2.1470 15.24587858129452'),\n",
       " ('YAOGAN 22',\n",
       "  '1 40275U 14063A   17004.29479100 -.00000044  00000-0  00000+0 0  9994',\n",
       "  '2 40275 100.3976 120.5583 0006579  88.5332 271.6542 13.15315898106093'),\n",
       " ('ASNARO',\n",
       "  '1 40298U 14070A   17004.43982961  .00001370  00000-0  67639-4 0  9995',\n",
       "  '2 40298  97.4218  89.3556 0001885  72.7872 347.6458 15.19545819119991'),\n",
       " ('HODOYOSHI-1',\n",
       "  '1 40299U 14070B   17004.49987302  .00000893  00000-0  42225-4 0  9999',\n",
       "  '2 40299  97.4170  89.6694 0012254 312.7604 168.3651 15.21903623120042'),\n",
       " ('CHUBUSAT-1',\n",
       "  '1 40300U 14070C   17004.51049344  .00000903  00000-0  44368-4 0  9992',\n",
       "  '2 40300  97.4108  87.3314 0019880 318.3923 167.2178 15.20468047119919'),\n",
       " ('QSAT-EOS',\n",
       "  '1 40301U 14070D   17004.51766814  .00002099  00000-0  93127-4 0  9996',\n",
       "  '2 40301  97.4046  87.0003 0027372 314.9371 170.6298 15.22377149119923'),\n",
       " ('TSUBAME',\n",
       "  '1 40302U 14070E   17004.54153014  .00001164  00000-0  63025-4 0  9998',\n",
       "  '2 40302  97.3958  80.9944 0039686 333.8905 138.6689 15.15957838119553'),\n",
       " ('YAOGAN 23',\n",
       "  '1 40305U 14071A   17004.55176947  .00001146  00000-0  59671-4 0  9995',\n",
       "  '2 40305  97.4134 305.6942 0001779  97.8128 348.3228 15.17981984118609'),\n",
       " ('YAOGAN 24',\n",
       "  '1 40310U 14072A   17004.34771175  .00000069  00000-0  17195-4 0  9991',\n",
       "  '2 40310  97.9858 126.1009 0015948 235.3440 124.6274 14.77067434114536'),\n",
       " ('CBERS-4',\n",
       "  '1 40336U 14079A   17004.40464646  .00000021  00000-0  22404-4 0  9992',\n",
       "  '2 40336  98.4720  82.2317 0001095 106.5345 253.5969 14.35453891108911'),\n",
       " ('RESURS P2',\n",
       "  '1 40360U 14087A   17004.55894742  .00001848  00000-0  62109-4 0  9992',\n",
       "  '2 40360  97.2815 101.0839 0010111   7.4327  49.3065 15.32059274113332'),\n",
       " ('YAOGAN 26',\n",
       "  '1 40362U 14088A   17004.55265133  .00001714  00000-0  68028-4 0  9999',\n",
       "  '2 40362  97.3706  85.8205 0006791 123.6444 349.3712 15.26695889112792'),\n",
       " ('SMAP',\n",
       "  '1 40376U 15003A   17004.42334818  .00000065  00000-0  21547-4 0  9998',\n",
       "  '2 40376  98.1218  14.5376 0000902  33.1379 326.9877 14.63364650102940'),\n",
       " ('KOMPSAT 3A',\n",
       "  '1 40536U 15014A   17004.57631289  .00000993  00000-0  61545-4 0  9998',\n",
       "  '2 40536  97.4661 307.8071 0010275 174.0026 307.2949 15.11956889 98323'),\n",
       " ('SENTINEL-2A',\n",
       "  '1 40697U 15028A   17004.47316448  .00000024  00000-0  25860-4 0  9992',\n",
       "  '2 40697  98.5728  81.7617 0001114  78.5813 281.5498 14.30818441 80285'),\n",
       " ('CARBONITE 1 (CBNT-1)',\n",
       "  '1 40718U 15032D   17004.47091522  .00000068  00000-0  17922-4 0  9992',\n",
       "  '2 40718  97.9880 258.9547 0016068 307.5471  52.4274 14.74488101 80124'),\n",
       " ('YAOGAN 27',\n",
       "  '1 40878U 15040A   17004.31161996 -.00000044  00000-0  00000+0 0  9993',\n",
       "  '2 40878 100.4216  67.7656 0008249 221.8356 138.2127 13.15952015 65265'),\n",
       " ('LAPAN-A2',\n",
       "  '1 40931U 15052B   17004.23962908  .00000772  00000-0  18628-4 0  9996',\n",
       "  '2 40931   6.0022 321.6958 0012981  80.4858 279.7016 14.76506581 68691'),\n",
       " ('YAOGAN 28',\n",
       "  '1 41026U 15064A   17004.56496009  .00001852  00000-0  65732-4 0  9993',\n",
       "  '2 41026  97.2948 135.1119 0009498 174.0890 246.5322 15.30271182 64738'),\n",
       " ('YAOGAN 29',\n",
       "  '1 41038U 15069A   17004.55549948  .00000019  00000-0  91876-5 0  9994',\n",
       "  '2 41038  97.8811 349.5180 0001872  62.0972 298.0421 14.80361999 59871'),\n",
       " ('KENT RIDGE 1',\n",
       "  '1 41167U 15077B   17004.13763889  .00000874  00000-0  13686-4 0  9993',\n",
       "  '2 41167  14.9799 293.8014 0011048 251.0533 314.5223 15.08586599 58122'),\n",
       " ('TELEOS 1',\n",
       "  '1 41169U 15077D   17004.57315972  .00001393  00000-0  45141-4 0  9997',\n",
       "  '2 41169  14.9820 289.6866 0010245 253.9443 110.1525 15.09096271 58204'),\n",
       " ('JASON-3',\n",
       "  '1 41240U 16002A   17004.20709657 -.00000037  00000-0  10267-3 0  9998',\n",
       "  '2 41240  66.0424 102.7364 0007529 271.4541  88.5612 12.80929302 45145'),\n",
       " ('SENTINEL-3A',\n",
       "  '1 41335U 16011A   17004.47590234 -.00000007  00000-0  15059-4 0  9993',\n",
       "  '2 41335  98.6311  74.2439 0000973 105.7092 254.4195 14.26734768 46017'),\n",
       " ('SENTINEL-1B',\n",
       "  '1 41456U 16025A   17004.54391184 -.00000035  00000-0  23761-5 0  9994',\n",
       "  '2 41456  98.1810  14.3439 0001265  76.5485 283.5858 14.59199623 36997'),\n",
       " ('ZIYUAN 3-2',\n",
       "  '1 41556U 16033A   17004.53312130  .00001066  00000-0  50772-4 0  9992',\n",
       "  '2 41556  97.4805  82.6055 0002352  73.5612  40.7787 15.21314628 33369'),\n",
       " ('NUSAT 1 (FRESCO)',\n",
       "  '1 41557U 16033B   17004.28910852  .00002013  00000-0  80113-4 0  9995',\n",
       "  '2 41557  97.4795  83.7612 0013526 220.7577 139.2650 15.26382052 33421'),\n",
       " ('NUSAT 2 (BATATA)',\n",
       "  '1 41558U 16033C   17004.24319461  .00002182  00000-0  86942-4 0  9994',\n",
